{"type": "FeatureCollection", "features": [{"type": "Feature", "properties": {"norad_id": 24946, "name": "IRIDIUM 33", "group": "iridium-33-debris", "lat": 72.08035845234913, "lon": -126.5840503587298, "alt_km": 765.6273958676638, "timestamp": "2025-12-21T03:56:51.217818+00:00", "meta": {"OBJECT_NAME": "IRIDIUM 33", "OBJECT_ID": "1997-051C", "EPOCH": "2025-12-20T17:24:25.283232", "MEAN_MOTION": 14.35042457, "ECCENTRICITY": 0.0007988, "INCLINATION": 86.3864, "RA_OF_ASC_NODE": 64.8697, "ARG_OF_PERICENTER": 173.6442, "MEAN_ANOMALY": 186.4857, "EPHEMERIS_TYPE": 0, "CLASSIFICATION_TYPE": "U", "NORAD_CAT_ID": 24946, "ELEMENT_SET_NO": 999, "REV_AT_EPOCH": 47949, "BSTAR": 8.185e-05, "MEAN_MOTION_DOT": 2.53e-06, "MEAN_MOTION_DDOT": 0}, "tle": {"line1": "1 24946U 97051C   25354.72529263  .00000253  00000+0  81850-4 0  9997", "line2": "2 24946  86.3864  64.8697 0007988 173.6442 186.4857 14.35042457479498"}}, "geometry": {"type": "Point", "coordinates": [-126.5840503587298, 72.08035845234913]}}, {"type": "Feature", "properties": {"norad_id": 33773, "name": "IRIDIUM 33 DEB", "group": "iridium-33-debris", "lat": -46.27657308939071, "lon": 53.24522600912275, "alt_km": 763.7036263955333, "timestamp": "2025-12-21T03:56:51.217861+00:00", "meta": {"OBJECT_NAME": "IRIDIUM 33 DEB", "OBJECT_ID": "1997-051L", "EPOCH": "2025-12-20T14:51:03.588192", "MEAN_MOTION": 14.43272103, "ECCENTRICITY": 0.0013102, "INCLINATION": 86.4001, "RA_OF_ASC_NODE": 57.2506, "ARG_OF_PERICENTER": 123.5975, "MEAN_ANOMALY": 236.6478, "EPHEMERIS_TYPE": 0, "CLASSIFICATION_TYPE": "U", "NORAD_CAT_ID": 33773, "ELEMENT_SET_NO": 999, "REV_AT_EPOCH": 88461, "BSTAR": 0.00020041, "MEAN_MOTION_DOT": 6.95e-06, "MEAN_MOTION_DDOT": 0}, "tle": {"line1": "1 33773U 97051L   25354.61879153  .00000695  00000+0  20041-3 0  9993", "line2": "2 33773  86.4001  57.2506 0013102 123.5975 236.6478 14.43272103884618"}}, "geometry": {"type": "Point", "coordinates": [53.24522600912275, -46.27657308939071]}}, {"type": "Feature", "properties": {"norad_id": 33775, "name": "IRIDIUM 33 DEB", "group": "iridium-33-debris", "lat": -17.102239729596505, "lon": 44.83533642038346, "alt_km": 767.4884876473589, "timestamp": "2025-12-21T03:56:51.217876+00:00", "meta": {"OBJECT_NAME": "IRIDIUM 33 DEB", "OBJECT_ID": "1997-051N", "EPOCH": "2025-12-20T09:46:27.262272", "MEAN_MOTION": 14.41483487, "ECCENTRICITY": 0.00150209, "INCLINATION": 86.3628, "RA_OF_ASC_NODE": 46.28, "ARG_OF_PERICENTER": 131.6576, "MEAN_ANOMALY": 244.435, "EPHEMERIS_TYPE": 0, "CLASSIFICATION_TYPE": "U", "NORAD_CAT_ID": 33775, "ELEMENT_SET_NO": 999, "REV_AT_EPOCH": 88251, "BSTAR": 0.00022414804, "MEAN_MOTION_DOT": 7.48e-06, "MEAN_MOTION_DDOT": 0}, "tle": {"line1": "1 33775U 97051N   25354.40725998  .00000748  00000+0  22415-3 0  9995", "line2": "2 33775  86.3628  46.2800 0015020 131.6576 244.4350 14.41483487882517"}}, "geometry": {"type": "Point", "coordinates": [44.83533642038346, -17.102239729596505]}}, {"type": "Feature", "properties": {"norad_id": 33776, "name": "IRIDIUM 33 DEB", "group": "iridium-33-debris", "lat": 65.05696387293247, "lon": -110.53400590030819, "alt_km": 750.824932082307, "timestamp": "2025-12-21T03:56:51.217889+00:00", "meta": {"OBJECT_NAME": "IRIDIUM 33 DEB", "OBJECT_ID": "1997-051P", "EPOCH": "2025-12-20T17:57:25.069248", "MEAN_MOTION": 14.38248019, "ECCENTRICITY": 0.0015263, "INCLINATION": 86.4034, "RA_OF_ASC_NODE": 77.4128, "ARG_OF_PERICENTER": 164.7003, "MEAN_ANOMALY": 316.1077, "EPHEMERIS_TYPE": 0, "CLASSIFICATION_TYPE": "U", "NORAD_CAT_ID": 33776, "ELEMENT_SET_NO": 999, "REV_AT_EPOCH": 88197, "BSTAR": 0.00019535, "MEAN_MOTION_DOT": 6.14e-06, "MEAN_MOTION_DDOT": 0}, "tle": {"line1": "1 33776U 97051P   25354.74820682  .00000614  00000+0  19535-3 0  9990", "line2": "2 33776  86.4034  77.4128 0015263 164.7003 316.1077 14.38248019881978"}}, "geometry": {"type": "Point", "coordinates": [-110.53400590030819, 65.05696387293247]}}, {"type": "Feature", "properties": {"norad_id": 33777, "name": "IRIDIUM 33 DEB", "group": "iridium-33-debris", "lat": 69.09200769066013, "lon": 41.08394665065951, "alt_km": 703.8776489674829, "timestamp": "2025-12-21T03:56:51.217901+00:00", "meta": {"OBJECT_NAME": "IRIDIUM 33 DEB", "OBJECT_ID": "1997-051Q", "EPOCH": "2025-12-20T12:46:53.076000", "MEAN_MOTION": 14.55663152, "ECCENTRICITY": 0.0005789, "INCLINATION": 86.3775, "RA_OF_ASC_NODE": 31.8134, "ARG_OF_PERICENTER": 214.9048, "MEAN_ANOMALY": 145.178, "EPHEMERIS_TYPE": 0, "CLASSIFICATION_TYPE": "U", "NORAD_CAT_ID": 33777, "ELEMENT_SET_NO": 999, "REV_AT_EPOCH": 88647, "BSTAR": 0.00051289, "MEAN_MOTION_DOT": 2.26e-05, "MEAN_MOTION_DDOT": 0}, "tle": {"line1": "1 33777U 97051Q   25354.53255875  .00002260  00000+0  51289-3 0  9995", "line2": "2 33777  86.3775  31.8134 0005789 214.9048 145.1780 14.55663152886479"}}, "geometry": {"type": "Point", "coordinates": [41.08394665065951, 69.09200769066013]}}, {"type": "Feature", "properties": {"norad_id": 33850, "name": "IRIDIUM 33 DEB", "group": "iridium-33-debris", "lat": -15.63400941823382, "lon": 25.530679881556516, "alt_km": 764.3388691947348, "timestamp": "2025-12-21T03:56:51.217913+00:00", "meta": {"OBJECT_NAME": "IRIDIUM 33 DEB", "OBJECT_ID": "1997-051T", "EPOCH": "2025-12-20T20:29:38.135040", "MEAN_MOTION": 14.42163451, "ECCENTRICITY": 0.0013008, "INCLINATION": 86.3409, "RA_OF_ASC_NODE": 26.6903, "ARG_OF_PERICENTER": 136.6945, "MEAN_ANOMALY": 36.4511, "EPHEMERIS_TYPE": 0, "CLASSIFICATION_TYPE": "U", "NORAD_CAT_ID": 33850, "ELEMENT_SET_NO": 999, "REV_AT_EPOCH": 88269, "BSTAR": 0.0002583, "MEAN_MOTION_DOT": 8.7e-06, "MEAN_MOTION_DDOT": 0}, "tle": {"line1": "1 33850U 97051T   25354.85391360  .00000870  00000+0  25830-3 0  9990", "line2": "2 33850  86.3409  26.6903 0013008 136.6945  36.4511 14.42163451882697"}}, "geometry": {"type": "Point", "coordinates": [25.530679881556516, -15.63400941823382]}}, {"type": "Feature", "properties": {"norad_id": 33853, "name": "IRIDIUM 33 DEB", "group": "iridium-33-debris", "lat": 38.72811423882778, "lon": 162.89975767255027, "alt_km": 836.6930045807867, "timestamp": "2025-12-21T03:56:51.217924+00:00", "meta": {"OBJECT_NAME": "IRIDIUM 33 DEB", "OBJECT_ID": "1997-051W", "EPOCH": "2025-12-20T10:42:24.160608", "MEAN_MOTION": 13.99101393, "ECCENTRICITY": 0.02072613, "INCLINATION": 85.9998, "RA_OF_ASC_NODE": 346.4315, "ARG_OF_PERICENTER": 212.032, "MEAN_ANOMALY": 275.1886, "EPHEMERIS_TYPE": 0, "CLASSIFICATION_TYPE": "U", "NORAD_CAT_ID": 33853, "ELEMENT_SET_NO": 999, "REV_AT_EPOCH": 85453, "BSTAR": 0.0010652469, "MEAN_MOTION_DOT": 1.87e-05, "MEAN_MOTION_DDOT": 0}, "tle": {"line1": "1 33853U 97051W   25354.44611297  .00001870  00000+0  10652-2 0  9998", "line2": "2 33853  85.9998 346.4315 0207261 212.0320 275.1886 13.99101393854537"}}, "geometry": {"type": "Point", "coordinates": [162.89975767255027, 38.72811423882778]}}, {"type": "Feature", "properties": {"norad_id": 33860, "name": "IRIDIUM 33 DEB", "group": "iridium-33-debris", "lat": -36.56431111592843, "lon": 20.81915476781926, "alt_km": 671.1066065541418, "timestamp": "2025-12-21T03:56:51.217934+00:00", "meta": {"OBJECT_NAME": "IRIDIUM 33 DEB", "OBJECT_ID": "1997-051AD", "EPOCH": "2025-12-20T20:29:23.154144", "MEAN_MOTION": 14.67455814, "ECCENTRICITY": 0.0006442, "INCLINATION": 86.3823, "RA_OF_ASC_NODE": 23.6463, "ARG_OF_PERICENTER": 327.0708, "MEAN_ANOMALY": 155.8571, "EPHEMERIS_TYPE": 0, "CLASSIFICATION_TYPE": "U", "NORAD_CAT_ID": 33860, "ELEMENT_SET_NO": 999, "REV_AT_EPOCH": 88841, "BSTAR": 0.00066996, "MEAN_MOTION_DOT": 3.814e-05, "MEAN_MOTION_DDOT": 0}, "tle": {"line1": "1 33860U 97051AD  25354.85374021  .00003814  00000+0  66996-3 0  9995", "line2": "2 33860  86.3823  23.6463 0006442 327.0708 155.8571 14.67455814888415"}}, "geometry": {"type": "Point", "coordinates": [20.81915476781926, -36.56431111592843]}}, {"type": "Feature", "properties": {"norad_id": 33862, "name": "IRIDIUM 33 DEB", "group": "iridium-33-debris", "lat": 63.00212763825005, "lon": 40.89764421188405, "alt_km": 621.9894043294807, "timestamp": "2025-12-21T03:56:51.217944+00:00", "meta": {"OBJECT_NAME": "IRIDIUM 33 DEB", "OBJECT_ID": "1997-051AF", "EPOCH": "2025-12-20T13:30:03.805056", "MEAN_MOTION": 14.69587199, "ECCENTRICITY": 0.0052676, "INCLINATION": 86.4079, "RA_OF_ASC_NODE": 34.0806, "ARG_OF_PERICENTER": 42.9982, "MEAN_ANOMALY": 77.561, "EPHEMERIS_TYPE": 0, "CLASSIFICATION_TYPE": "U", "NORAD_CAT_ID": 33862, "ELEMENT_SET_NO": 999, "REV_AT_EPOCH": 88938, "BSTAR": 0.00081002, "MEAN_MOTION_DOT": 4.938e-05, "MEAN_MOTION_DDOT": 0}, "tle": {"line1": "1 33862U 97051AF  25354.56254404  .00004938  00000+0  81002-3 0  9990", "line2": "2 33862  86.4079  34.0806 0052676  42.9982  77.5610 14.69587199889380"}}, "geometry": {"type": "Point", "coordinates": [40.89764421188405, 63.00212763825005]}}, {"type": "Feature", "properties": {"norad_id": 33866, "name": "IRIDIUM 33 DEB", "group": "iridium-33-debris", "lat": -49.373599926187474, "lon": -86.2027849999278, "alt_km": 820.3623973545336, "timestamp": "2025-12-21T03:56:51.217954+00:00", "meta": {"OBJECT_NAME": "IRIDIUM 33 DEB", "OBJECT_ID": "1997-051AK", "EPOCH": "2025-12-20T19:02:31.124256", "MEAN_MOTION": 14.25296873, "ECCENTRICITY": 0.0115004, "INCLINATION": 86.3001, "RA_OF_ASC_NODE": 89.6286, "ARG_OF_PERICENTER": 135.8612, "MEAN_ANOMALY": 349.482, "EPHEMERIS_TYPE": 0, "CLASSIFICATION_TYPE": "U", "NORAD_CAT_ID": 33866, "ELEMENT_SET_NO": 999, "REV_AT_EPOCH": 86925, "BSTAR": 0.000375, "MEAN_MOTION_DOT": 9.66e-06, "MEAN_MOTION_DDOT": 0}, "tle": {"line1": "1 33866U 97051AK  25354.79341579  .00000966  00000+0  37500-3 0  9990", "line2": "2 33866  86.3001  89.6286 0115004 135.8612 349.4820 14.25296873869259"}}, "geometry": {"type": "Point", "coordinates": [-86.2027849999278, -49.373599926187474]}}]}